STARLINK-1434           
1 45712U 20035BH  26068.24137979  .00054112  00000+0  20295-2 0  9995
2 45712  53.0547  22.1128 0005343  88.0400 272.1210 15.26724568319325
STARLINK-31671          
1 59516U 24073F   26068.10587874 -.00000535  00000+0 -98890-5 0  9997
2 59516  42.9998 321.5442 0003014 242.6241 117.4304 15.27573781106080
